SatCatId,ObjectName,LaunchYear,OrbitalPeriod,LaunchMass,StatusCode,Inclination,Status,UcsData,OrbitClassEstimated,LaunchSiteCountry,Owner,UseType,Purpose,LaunchVehicleClass,TLE1,TLE2,MeanMotion,Eccentricity,OrbitClass
27426,DIRECTV 5 (TEMPO 1),2002,1436.1,4300.0,+,3.14,Active,1,GSO,Kazakhstan,USA,Commercial,Communications,Proton,1 27426U 02023A   24226.87729175 -.00000048  00000+0  00000+0 0  9991,2 27426   3.1449  83.7307 0003378  65.6281  19.1403  1.00271471 81382,1.00271471,0.0003378,GSO
27438,INTELSAT 905 (IS-905),2002,1436.1,4723.0,+,5.04,Active,1,GSO,French Guiana,INTELSAT,Commercial,Communications,Ariane,1 27438U 02027A   24227.22827094 -.00000179  00000+0  00000+0 0  9992,2 27438   5.0479  77.8208 0002517  62.9938 240.0074  1.00271158 81231,1.00271158,0.0002517,GSO
27445,GALAXY 3C (G-3C),2002,1436.1,4860.0,+,1.99,Active,1,GSO,Sea Launch Platform,USA,Commercial,Communications,Zenit,1 27445U 02030A   24227.45257532 -.00000145  00000+0  00000+0 0  9996,2 27445   1.9956  86.1532 0004190  40.9331 264.3460  1.00271640 81211,1.0027164,0.000419,GSO
27464,COSMOS 2390,2002,115.7,225.0,+,82.48,Active,1,LEO,Russia,Russia/USSR,Military,Communications,Kosmos,1 27464U 02036A   24226.77854053  .00000049  00000+0  27669-3 0  9994,2 27464  82.4816  45.3856 0024595 290.0733  69.7701 12.44602501  4025,12.44602501,0.0024595,LEO
27465,COSMOS 2391,2002,115.67,225.0,+,82.48,Active,1,LEO,Russia,Russia/USSR,Military,Communications,Kosmos,1 27465U 02036B   24226.88848005  .00000043  00000+0  23602-3 0  9994,2 27465  82.4816  42.1247 0025420 284.4915  75.3346 12.44923980  4195,12.4492398,0.002542,LEO
27513,INTELSAT 906 (IS-906),2002,1436.08,4723.0,+,4.08,Active,1,GSO,French Guiana,INTELSAT,Commercial,Communications,Ariane,1 27513U 02041A   24226.82787513  .00000021  00000+0  00000+0 0  9993,2 27513   4.0810  81.1951 0002311  64.7589 178.9591  1.00272854 80281,1.00272854,0.0002311,GSO
27540,INTEGRAL,2002,3832.56,4000.0,+,89.71,Active,1,HEO,Kazakhstan,ESA,Government,Space Science,Proton,1 27540U 02048A   24227.27903196 -.00000149  00000+0  00000+0 0  9999,2 27540  89.7309  18.2026 8637135 280.3191 337.0520  0.37576035 24105,0.37576035,0.8637135,HEO
27566,TDRS 10,2002,1436.13,3180.0,+,9.67,Active,1,GSO,USA,USA,Government,Communications,Atlas,1 27566U 02055A   24226.85966885  .00000093  00000+0  00000+0 0  9999,2 27566   9.6701  44.9895 0003720 355.6947  60.4143  1.00269885 79497,1.00269885,0.000372,GSO
27606,LATINSAT B,2002,97.65,-1.0,+,64.56,Active,1,LEO,Kazakhstan,Argentina,Commercial,Communications,Dnepr,1 27606U 02058B   24226.96147434  .00004162  00000+0  63386-3 0  9991,2 27606  64.5566 147.7089 0036891 100.9857 259.5399 14.74738322162875,14.74738322,0.0036891,LEO
27607,SAUDISAT 1C (SO-50),2002,97.34,10.0,+,64.56,Active,1,LEO,Kazakhstan,Saudi Arabia,Government,Communications,Dnepr,1 27607U 02058C   24227.54745600  .00004801  00000+0  65721-3 0  9991,2 27607  64.5559  42.1208 0025454  80.5868 279.8112 14.79360778165161,14.79360778,0.0025454,LEO
27612,LATINSAT A,2002,97.13,-1.0,+,64.55,Active,1,LEO,Kazakhstan,Argentina,Commercial,Communications,Dnepr,1 27612U 02058H   24227.16408600  .00004117  00000+0  52736-3 0  9993,2 27612  64.5544 244.6755 0017873 359.0480   1.0589 14.82494052168137,14.82494052,0.0017873,LEO
27632,NIMIQ 2,2002,1436.08,-1.0,+,7.86,Active,0,GSO,Kazakhstan,Canada,Unknown,Unknown,Unknown,1 27632U 02062A   24226.59133384 -.00000062  00000+0  00000+0 0  9999,2 27632   7.8615  63.6592 0005479  84.3629 278.1991  1.00273528 37440,1.00273528,0.0005479,GSO
27640,CORIOLIS,2003,101.44,817.0,+,98.71,Active,1,LEO,USA,USA,Military,Earth Observation,Titan,1 27640U 03001A   24227.02627392  .00000650  00000+0  32892-3 0  9998,2 27640  98.7144 233.3230 0013945 353.4989   6.6004 14.19524945118801,14.19524945,0.0013945,LEO
27651,SORCE,2003,96.27,315.0,+,39.99,Active,1,LEO,Eastern Range Airspace,USA,Civil/Government,Space Science,Pegasus,1 27651U 03004A   24227.39337246  .00010199  00000+0  90453-3 0  9995,2 27651  39.9930 115.5015 0022768 287.7780  72.0528 14.95834271170981,14.95834271,0.0022768,LEO
27663,NAVSTAR 51 (USA 166),2003,717.95,2217.0,+,55.08,Active,1,MEO,USA,USA,Commercial/Military,Navigation (Global or Regional Positioning),Delta,1 27663U 03005A   24227.03644455  .00000091  00000+0  00000+0 0  9998,2 27663  55.0845 241.6925 0136777  47.4947 323.0965  2.00571583157820,2.00571583,0.0136777,MEO
27691,USA 167,2003,1435.56,1156.0,+,9.6,Active,1,GSO,USA,USA,Military,Communications,Atlas,1 27691U 03008A   24222.59157678  .00000004  00000+0  00000+0 0  9998,2 27691   9.6014  49.0778 0001725 160.1887 200.6008  1.00309255 24847,1.00309255,0.0001725,GSO
27704,NAVSTAR 52 (USA 168),2003,717.97,2217.0,+,55.09,Active,1,MEO,USA,USA,Commercial/Military,Navigation (Global or Regional Positioning),Delta,1 27704U 03010A   24226.72219369 -.00000086  00000+0  00000+0 0  9992,2 27704  55.0873 351.4709 0253600 328.9534  31.2096  2.00565125156626,2.00565125,0.02536,MEO
27711,USA 169 (MILSTAR-2 4),2003,1436.06,4536.0,+,11.31,Active,1,GSO,USA,USA,Military,Communications,Titan,1 27711U 03012A   24226.78625078 -.00000188  00000+0  00000+0 0  9999,2 27711  11.3163  34.9501 0097846   4.1594 358.7911  1.00274184 24900,1.00274184,0.0097846,GSO
27718,ASIASAT 4,2003,1436.09,-1.0,+,2.97,Active,0,GSO,USA,ASIASAT,Unknown,Unknown,Unknown,1 27718U 03014A   24226.92849785 -.00000214  00000+0  00000+0 0  9997,2 27718   2.9730  84.2370 0002481  67.5551 292.8581  1.00271919 78185,1.00271919,0.0002481,GSO
27811,HELLAS-SAT 2,2003,1436.09,3300.0,+,5.66,Active,1,GSO,USA,Greece,Commercial,Communications,Atlas,1 27811U 03020A   24227.05952274 -.00000077  00000+0  00000+0 0  9998,2 27811   5.6629  75.8281 0005705  85.6998 172.8683  1.00272302 77604,1.00272302,0.0005705,GSO
27825,THURAYA-2,2003,1436.09,5250.0,+,7.8,Active,1,GSO,Sea Launch Platform,UAE,Commercial,Communications,Zenit,1 27825U 03026A   24227.08799330  .00000134  00000+0  00000+0 0  9997,2 27825   7.8032  34.0805 0002420  83.4695 281.1185  1.00271227 77607,1.00271227,0.000242,GSO
27831,OPTUS C1,2003,1436.07,4800.0,+,5.18,Active,1,GSO,French Guiana,Australia,Commercial/Military,Communications,Ariane,1 27831U 03028B   24226.85858189 -.00000144  00000+0  00000+0 0  9990,2 27831   5.1874  77.4900 0005688  63.4290 286.6601  1.00273164 46313,1.00273164,0.0005688,GSO
27843,MOST,2003,101.34,53.0,+,98.71,Active,1,LEO,Russia,Canada,Government,Space Science,Rokot,1 27843U 03031D   24227.28829775  .00000557  00000+0  27698-3 0  9997,2 27843  98.7075 233.4298 0010601  37.7652 322.4267 14.21001634 95272,14.21001634,0.0010601,LEO
27844,CUTE-1 (CO-55),2003,101.17,-1.0,+,98.68,Active,0,LEO,Russia,Japan,Unknown,Unknown,Unknown,1 27844U 03031E   24227.01617607  .00001691  00000+0  76438-3 0  9994,2 27844  98.6782 233.2443 0009309 344.6232  15.4662 14.23374696 96041,14.23374696,0.0009309,LEO
27848,CUBESAT XI-IV (CO-57),2003,101.21,-1.0,+,98.68,Active,1,LEO,Russia,Japan,Civil,Technology Development,Dnepr,1 27848U 03031J   24226.97333211  .00001424  00000+0  65385-3 0  9991,2 27848  98.6816 233.4139 0009579   1.1987 358.9212 14.22799809 95757,14.22799809,0.0009579,LEO
27854,GALAXY 23 (G-23),2003,1436.11,4000.0,+,1.45,Active,1,GSO,Sea Launch Platform,USA,Commercial,Communications,Zenit,1 27854U 03034A   24227.58423797  .00000020  00000+0  00000+0 0  9998,2 27854   1.4537  88.2955 0002672  59.9529 264.6600  1.00271418 81817,1.00271418,0.0002672,GSO
27858,SCISAT 1,2003,97.34,150.0,+,73.93,Active,1,LEO,Western Range Airspace,Canada,Government,Space Science,Pegasus,1 27858U 03036A   24227.02584431  .00003159  00000+0  42779-3 0  9995,2 27858  73.9317  65.2193 0008645 277.9586  82.0608 14.79407938131972,14.79407938,0.0008645,LEO
27868,COSMOS 2400,2003,115.65,225.0,+,82.47,Active,1,LEO,Russia,Russia/USSR,Military,Communications,Kosmos,1 27868U 03037A   24226.86573058  .00000056  00000+0  32353-3 0  9991,2 27868  82.4704  31.3993 0022395  87.2401 273.1243 12.45168636953976,12.45168636,0.0022395,LEO
27869,COSMOS 2401,2003,115.62,225.0,+,82.47,Active,1,LEO,Russia,Russia/USSR,Military,Communications,Kosmos,1 27869U 03037B   24226.83674615  .00000058  00000+0  33500-3 0  9997,2 27869  82.4701  28.0876 0023143  83.5943 276.7773 12.45483852954067,12.45483852,0.0023143,LEO
27875,USA 170,2003,1436.1,1156.0,+,9.05,Active,1,GSO,USA,USA,Military,Communications,Delta,1 27875U 03040A   24226.68942646  .00000134  00000+0  00000+0 0  9993,2 27875   9.0567  53.9374 0001838  42.4343 138.6049  1.00271322 26242,1.00271322,0.0001838,GSO
27939,MOZHAYETS 4 (RS-22),2003,97.94,64.0,+,98.3,Active,1,LEO,Russia,Russia/USSR,Civil/Government,Technology Development,Kosmos,1 27939U 03042A   24226.88236763  .00006105  00000+0  10186-2 0  9997,2 27939  98.2976  24.0261 0011025 235.0352 293.5466 14.70283936116755,14.70283936,0.0011025,LEO
27944,LARETS,2003,98.39,-1.0,+,98.32,Active,0,LEO,Russia,Russia/USSR,Unknown,Unknown,Unknown,1 27944U 03042F   24227.49807947  .00000435  00000+0  93334-4 0  9997,2 27944  98.3231   8.2725 0011814 339.3242  20.7480 14.63552883115181,14.63552883,0.0011814,LEO
27954,GALAXY 13 (HORIZONS-1),2003,1436.08,4060.0,+,0.01,Active,1,GSO,Sea Launch Platform,USA,Commercial,Communications,Zenit,1 27954U 03044A   24226.72639525  .00000143  00000+0  00000+0 0  9999,2 27954   0.0072  88.6605 0000924 259.1923  86.2744  1.00273008 39821,1.00273008,9.24e-05,GEO
28051,IRS-P6 (RESOURCESAT-1),2003,100.31,1360.0,+,98.29,Active,1,LEO,India,India,Government,Earth Observation,PSLV,1 28051U 03046A   24226.90210672  .00001601  00000+0  55726-3 0  9997,2 28051  98.2896 281.9732 0064563 195.5965 337.6674 14.35545821 84079,14.35545821,0.0064563,LEO
28054,DMSP 5D-3 F16 (USA 172),2003,101.83,1154.0,B,99.02,Active,1,LEO,USA,USA,Military,Earth Observation,Titan,1 28054U 03048A   24227.53486773  .00000643  00000+0  36169-3 0  9994,2 28054  99.0224 234.5539 0006234 244.7199 227.0774 14.14074321 74523,14.14074321,0.0006234,LEO
